[{"OBJECT_ID":"2006-010B","OBJECT_NAME":"BLOCK DM-SL R/B","NORAD_CAT_ID":"29046","OBJECT_TYPE":"ROCKET BODY","PERIOD":"656.283","INCLINATION":"0.201","APOGEE":"35616.224","PERIGEE":"1659.860","ECCENTRICITY":"0.6786881","MEAN_MOTION":"2.19417534","TLE_LINE1":"1 29046U 06010B   16238.77614104 +.00000004 +00000-0 +49193-1 0  9999","TLE_LINE2":"2 29046 000.2010 073.5395 6786881 139.9557 356.3969 02.19417534083155","LAUNCH_DATE":"2006-04-12","LAUNCH_SITE":"SEA LAUNCH","OWNER":"SEA LAUNCH DEMO","ORBIT_TYPE":"Highly Elliptical Orbit","OPERATIONAL_STATUS":"N/A, derelict rocket body","satInfo":{"lng":-145.68326846378926,"lat":-1.9521022333995663,"elevation":-11.68677230015408,"azimuth":100.68326846378923,"range":37566.60339802328,"height":30431.033073972794,"velocity":2.390888061362784},"x":-129,"y":198,"dx":-1.9747150184440823,"dy":-1.3479044171967387},{"OBJECT_ID":"2006-012A","OBJECT_NAME":"ASTRA 1KR","NORAD_CAT_ID":"29055","OBJECT_TYPE":"PAYLOAD","PERIOD":"1436.067","INCLINATION":"0.0925","APOGEE":"35804.150","PERIGEE":"35767.872","ECCENTRICITY":"0.0004302","MEAN_MOTION":"1.00273872","TLE_LINE1":"1 29055U 06012A   16239.00535610  .00000092  00000-0  00000+0 0  9991","TLE_LINE2":"2 29055   0.0925 277.8934 0004302 277.3134 160.6126  1.00273872 37827","LAUNCH_DATE":"2006-04-20","LAUNCH_SITE":"AIR FORCE EASTERN TEST RANGE","OWNER":"SOCIÉTÉ EUROPÉENNE DES SATELLITES","ORBIT_TYPE":"Geosynchronous","OPERATIONAL_STATUS":"Operational","satInfo":{"lng":34.77312582616454,"lat":-2.208914729598699,"elevation":-10.731342232153478,"azimuth":280.2268741738355,"range":42853.59361461703,"height":35757.271570610006,"velocity":3.0761617180093292},"x":152,"y":-231,"dx":2.5268109389809137,"dy":1.7544222393689899},{"OBJECT_ID":"2006-018A","OBJECT_NAME":"GOES 13","NORAD_CAT_ID":"29155","OBJECT_TYPE":"PAYLOAD","PERIOD":"1436.069","INCLINATION":"0.046","APOGEE":"35797.802","PERIGEE":"35774.299","ECCENTRICITY":"0.0002787","MEAN_MOTION":"1.00273733","TLE_LINE1":"1 29155U 06018A   16239.27664244 -.00000279  00000-0  00000+0 0  9991","TLE_LINE2":"2 29155   0.0460 247.7262 0002787 225.6544 246.6412  1.00273733 37603","LAUNCH_DATE":"2006-05-24","LAUNCH_SITE":"AIR FORCE EASTERN TEST RANGE","OWNER":"UNITED STATES OF AMERICA","ORBIT_TYPE":"Geosynchronous","OPERATIONAL_STATUS":"Operational","satInfo":{"lng":-90.97806501971985,"lat":0.4626775167457818,"elevation":-8.118933835170614,"azimuth":45.97806501971984,"range":42603.83963851431,"height":35800.05994483851,"velocity":3.074182807258337},"x":-268,"y":5,"dx":-0.0524751503096599,"dy":-3.0737349090386323},{"OBJECT_ID":"2006-020B","OBJECT_NAME":"THAICOM 5","NORAD_CAT_ID":"29163","OBJECT_TYPE":"PAYLOAD","PERIOD":"1436.087","INCLINATION":"0.047","APOGEE":"35805.822","PERIGEE":"35767.005","ECCENTRICITY":"0.0004603","MEAN_MOTION":"1.00272437","TLE_LINE1":"1 29163U 06020B   16238.92584662 -.00000149  00000-0  00000+0 0  9995","TLE_LINE2":"2 29163   0.0470 280.8243 0004603 296.2147 169.3569  1.00272437 37617","LAUNCH_DATE":"2006-05-27","LAUNCH_SITE":"FRENCH GUIANA","OWNER":"THAILAND","ORBIT_TYPE":"Geosynchronous","OPERATIONAL_STATUS":"Operational","satInfo":{"lng":71.96485936218697,"lat":-2.0224705286538427,"elevation":-10.547716122453794,"azimuth":243.03514063781304,"range":42845.61888065402,"height":35769.73979324645,"velocity":3.075894114769119},"x":254,"y":-87,"dx":0.9522975501189863,"dy":2.9247656284407952},{"OBJECT_ID":"2006-023B","OBJECT_NAME":"BLOCK DM-SL R/B","NORAD_CAT_ID":"29237","OBJECT_TYPE":"ROCKET BODY","PERIOD":"667.012","INCLINATION":"0.8927","APOGEE":"35635.738","PERIGEE":"2184.193","ECCENTRICITY":"0.6614088","MEAN_MOTION":"2.15887969","TLE_LINE1":"1 29237U 06023B   16238.62226272 -.00000029 +00000-0 +00000-0 0  9995","TLE_LINE2":"2 29237 000.8927 322.4846 6614088 266.6927 243.8886 02.15887969080306","LAUNCH_DATE":"2006-06-18","LAUNCH_SITE":"SEA LAUNCH","OWNER":"SEA LAUNCH DEMO","ORBIT_TYPE":"Highly Elliptical Orbit","OPERATIONAL_STATUS":"N/A, derelict rocket body","satInfo":{"lng":-112.41269701099765,"lat":-0.06653784929895601,"elevation":-11.64814904292328,"azimuth":67.41269701099765,"range":31664.459843470122,"height":24634.24349827692,"velocity":3.1532805996299835},"x":-170,"y":74,"dx":-1.202267851117176,"dy":-2.915086714691849},{"OBJECT_ID":"2006-033A","OBJECT_NAME":"JCSAT 10","NORAD_CAT_ID":"29272","OBJECT_TYPE":"PAYLOAD","PERIOD":"1436.120","INCLINATION":"0.037","APOGEE":"35795.336","PERIGEE":"35778.765","ECCENTRICITY":"0.0001965","MEAN_MOTION":"1.00270165","TLE_LINE1":"1 29272U 06033A   16238.81438253 -.00000372  00000-0  00000+0 0  9990","TLE_LINE2":"2 29272   0.0370 300.5483 0001965 208.5065 246.6055  1.00270165 36845","LAUNCH_DATE":"2006-08-11","LAUNCH_SITE":"FRENCH GUIANA","OWNER":"JAPAN","ORBIT_TYPE":"Geosynchronous","OPERATIONAL_STATUS":"Operational","satInfo":{"lng":109.55061434351572,"lat":-1.4558607875884086,"elevation":-9.989855790930758,"azimuth":205.44938565648428,"range":42817.71399306984,"height":35803.99830334082,"velocity":3.0741622505227952},"x":252,"y":94,"dx":-1.0287359526254085,"dy":2.8969252462421724},{"OBJECT_ID":"2006-033B","OBJECT_NAME":"SYRACUSE 3B","NORAD_CAT_ID":"29273","OBJECT_TYPE":"PAYLOAD","PERIOD":"1436.100","INCLINATION":"0.0102","APOGEE":"35797.886","PERIGEE":"35775.463","ECCENTRICITY":"0.0002659","MEAN_MOTION":"1.00271507","TLE_LINE1":"1 29273U 06033B   16238.88284251 -.00000071 +00000-0 +00000-0 0  9992","TLE_LINE2":"2 29273 000.0102 108.0432 0002659 063.7843 115.3408 01.00271507036799","LAUNCH_DATE":"2006-08-11","LAUNCH_SITE":"FRENCH GUIANA","OWNER":"FRANCE","ORBIT_TYPE":"Geosynchronous","OPERATIONAL_STATUS":"Operational","satInfo":{"lng":46.327943383003515,"lat":2.2498301854001226,"elevation":-6.36638478789755,"azimuth":268.6720566169965,"range":42411.574572628546,"height":35804.37501044543,"velocity":3.074443295178929},"x":193,"y":-195,"dx":2.1229945136764825,"dy":2.2237571517974315},{"OBJECT_ID":"2006-034B","OBJECT_NAME":"BLOCK DM-SL R/B","NORAD_CAT_ID":"29350","OBJECT_TYPE":"ROCKET BODY","PERIOD":"678.762","INCLINATION":"0.7296","APOGEE":"35527.714","PERIGEE":"2884.458","ECCENTRICITY":"0.6379568","MEAN_MOTION":"2.1215069","TLE_LINE1":"1 29350U 06034B   16238.81613514 -.00000028 +00000-0 +00000-0 0  9992","TLE_LINE2":"2 29350 000.7296 046.9914 6379568 008.4112 188.5149 02.12150690077598","LAUNCH_DATE":"2006-08-22","LAUNCH_SITE":"SEA LAUNCH","OWNER":"SEA LAUNCH DEMO","ORBIT_TYPE":"Highly Elliptical Orbit","OPERATIONAL_STATUS":"N/A, derelict rocket body","satInfo":{"lng":-33.41122502886649,"lat":-3.015487304233886,"elevation":-13.886425238419642,"azimuth":348.4112250288665,"range":33648.81414303659,"height":26332.469396999153,"velocity":2.9650358999172637},"x":-109,"y":-173,"dx":2.4750340686301175,"dy":-1.632680081007429},{"OBJECT_ID":"2006-043B","OBJECT_NAME":"OPTUS D1","NORAD_CAT_ID":"29495","OBJECT_TYPE":"PAYLOAD","PERIOD":"1436.100","INCLINATION":"0.0405","APOGEE":"35801.168","PERIGEE":"35772.158","ECCENTRICITY":"0.000344","MEAN_MOTION":"1.00271548","TLE_LINE1":"1 29495U 06043B   16238.84658787 -.00000138 +00000-0 +00000-0 0  9998","TLE_LINE2":"2 29495 000.0405 312.2904 0003440 209.9667 277.0270 01.00271548036193","LAUNCH_DATE":"2006-10-13","LAUNCH_SITE":"FRENCH GUIANA","OWNER":"AUSTRALIA","ORBIT_TYPE":"Geosynchronous","OPERATIONAL_STATUS":"Operational","satInfo":{"lng":-83.32310434160239,"lat":1.6699684414745843,"elevation":-6.930717503966982,"azimuth":38.32310434160238,"range":42499.40398531572,"height":35828.62322528501,"velocity":3.0727889681795735},"x":-266,"y":-33,"dx":0.3572738945318267,"dy":-3.05194813311959},{"OBJECT_ID":"2006-049B","OBJECT_NAME":"BLOCK DM-SL R/B","NORAD_CAT_ID":"29521","OBJECT_TYPE":"ROCKET BODY","PERIOD":"657.923","INCLINATION":"0.4057","APOGEE":"36053.874","PERIGEE":"1305.559","ECCENTRICITY":"0.6933618","MEAN_MOTION":"2.18870388","TLE_LINE1":"1 29521U 06049B   16238.70308968 -.00000011 +00000-0 +00000-0 0  9992","TLE_LINE2":"2 29521 000.4057 057.4201 6933618 010.9546 008.0369 02.18870388078508","LAUNCH_DATE":"2006-10-30","LAUNCH_SITE":"SEA LAUNCH","OWNER":"SEA LAUNCH DEMO","ORBIT_TYPE":"Highly Elliptical Orbit","OPERATIONAL_STATUS":"N/A, derelict rocket body","satInfo":{"lng":92.39832494393916,"lat":1.450800809265959,"elevation":-8.395160095727826,"azimuth":222.60167505606086,"range":37170.57633381786,"height":30405.92234825316,"velocity":2.4010869070043905},"x":227,"y":10,"dx":-0.10047694906241413,"dy":2.3989836843328094},{"OBJECT_ID":"2006-056A","OBJECT_NAME":"MEASAT 3","NORAD_CAT_ID":"29648","OBJECT_TYPE":"PAYLOAD","PERIOD":"1436.151","INCLINATION":"0.0258","APOGEE":"35803.597","PERIGEE":"35771.728","ECCENTRICITY":"0.0003779","MEAN_MOTION":"1.00267983","TLE_LINE1":"1 29648U 06056A   16238.80744811 -.00000268 +00000-0 +00000-0 0  9996","TLE_LINE2":"2 29648 000.0258 160.1942 0003779 001.2357 195.2008 01.00267983014537","LAUNCH_DATE":"2006-12-11","LAUNCH_SITE":"TYURATAM MISSILE AND SPACE COMPLEX","OWNER":"MALAYSIA","ORBIT_TYPE":"Geosynchronous","OPERATIONAL_STATUS":"Operational","satInfo":{"lng":58.89274962887149,"lat":0.6509277076158517,"elevation":-7.9409827612655945,"azimuth":256.10725037112843,"range":42552.73333638426,"height":35769.271001111076,"velocity":3.075896725287192},"x":228,"y":-146,"dx":1.5891364492178304,"dy":2.6335880487274044}]